NORAD_CAT_ID,OBJECT_NAME,OBJECT_TYPE,EPOCH,MEAN_MOTION,ECCENTRICITY,INCLINATION,RA_OF_ASC_NODE,ARG_OF_PERICENTER,MEAN_ANOMALY,BSTAR,MEAN_MOTION_DOT,MEAN_MOTION_DDOT,TLE_LINE0,TLE_LINE1,TLE_LINE2,SEMIMAJOR_AXIS,PERIOD,APOGEE,PERIGEE,DECAYED
53825.0,STARLINK-4751,PAYLOAD,2022-10-15 14:00:01,15.73170438,9.4e-05,53.2142,127.4587,98.1858,136.086,0.00041341,0.00057725,0.0,0 STARLINK-4751,1 53825U 22114H   22288.58334491  .00057725  00000-0  41341-3 0  9994,2 53825  53.2142 127.4587 0000940  98.1858 136.0860 15.73170438  1305,6727.979,91.535,350.477,349.212,0.0
53825.0,STARLINK-4751,PAYLOAD,2022-10-15 22:00:01,15.73181484,0.0001077,53.2139,125.8112,80.8375,242.4125,1.2003e-05,1.064e-05,0.0,0 STARLINK-4751,1 53825U 22114H   22288.91668981  .00001064  00000-0  12003-4 0  9994,2 53825  53.2139 125.8112 0001077  80.8375 242.4125 15.73181484  4808,6727.948,91.534,350.538,349.088,0.0
53825.0,STARLINK-4751,PAYLOAD,2022-10-16 14:00:01,15.73174191,0.0001088,53.2141,122.5103,94.5081,46.4712,9.4971e-05,0.00012714,0.0,0 STARLINK-4751,1 53825U 22114H   22289.58334491  .00012714  00000-0  94971-4 0  9992,2 53825  53.2141 122.5103 0001088  94.5081  46.4712 15.73174191  1306,6727.969,91.535,350.566,349.102,0.0
53825.0,STARLINK-4751,PAYLOAD,2022-10-16 22:00:00,15.73137432,0.0001036,53.2143,120.863,74.9234,154.9278,0.00073012,0.00102833,0.0,0 STARLINK-4751,1 53825U 22114H   22289.91667824  .00102833  00000-0  73012-3 0  9992,2 53825  53.2143 120.8630 0001036  74.9234 154.9278 15.73137432  4963,6728.074000000001,91.537,350.636,349.242,0.0
53825.0,STARLINK-4751,PAYLOAD,2022-10-17 14:00:01,15.73224773,0.0001114,53.2147,117.5622,87.7864,319.9401,0.00044838,0.00062846,0.0,0 STARLINK-4751,1 53825U 22114H   22290.58334491  .00062846  00000-0  44838-3 0  9991,2 53825  53.2147 117.5622 0001114  87.7864 319.9401 15.73224773  5067,6727.825,91.532,350.439,348.94,0.0
53825.0,STARLINK-4751,PAYLOAD,2022-10-17 22:00:00,15.73243598,0.0001068,53.2138,115.9145,68.7399,67.9532,-0.00033788,-0.00047857,0.0,0 STARLINK-4751,1 53825U 22114H   22290.91667824 -.00047857  00000-0 -33788-3 0  9996,2 53825  53.2138 115.9145 0001068  68.7399  67.9532 15.73243598  1303,6727.771,91.531,350.35400000000016,348.917,0.0
53825.0,STARLINK-4751,PAYLOAD,2022-10-18 14:00:01,15.73158564,8.070000000000001e-05,53.2139,112.6135,78.2504,236.3188,0.00034457,0.00047928,0.0,0 STARLINK-4751,1 53825U 22114H   22291.58334491  .00047928  00000-0  34457-3 0  9992,2 53825  53.2139 112.6135 0000807  78.2504 236.3188 15.73158564  1308,6728.013000000001,91.536,350.421,349.335,0.0
53825.0,STARLINK-4751,PAYLOAD,2022-10-18 22:00:00,15.73202683,0.0001213,53.2175,110.967,79.3573,324.1515,2.1182e-05,2.354e-05,0.0,0 STARLINK-4751,1 53825U 22114H   22291.91667824  .00002354  00000-0  21182-4 0  9994,2 53825  53.2175 110.9670 0001213  79.3573 324.1515 15.73202683  1305,6727.888000000001,91.533,350.569,348.936,0.0
53825.0,STARLINK-4751,PAYLOAD,2022-10-19 14:00:01,15.73255767,0.0001093,53.2138,107.6651,70.5252,150.8159,-0.00020231,-0.00028982,0.0,0 STARLINK-4751,1 53825U 22114H   22292.58334491 -.00028982  00000-0 -20231-3 0  9999,2 53825  53.2138 107.6651 0001093  70.5252 150.8159 15.73255767  1308,6727.736,91.53,350.337,348.866,0.0
53825.0,STARLINK-4751,PAYLOAD,2022-10-19 22:00:00,15.73203375,0.0001261,53.2135,106.0172,57.3202,253.013,0.00025953,0.00035964,0.0,0 STARLINK-4751,1 53825U 22114H   22292.91667824  .00035964  00000-0  25953-3 0  9997,2 53825  53.2135 106.0172 0001261  57.3202 253.0130 15.73203375  1304,6727.886,91.533,350.599,348.902,0.0
53825.0,STARLINK-4751,PAYLOAD,2022-10-20 06:00:00,15.73178468,0.000102,53.2139,104.3655,66.2414,333.0469,0.00040256,0.00056203,0.0,0 STARLINK-4751,1 53825U 22114H   22293.25001157  .00056203  00000-0  40256-3 0  9998,2 53825  53.2139 104.3655 0001020  66.2414 333.0469 15.73178468  5483,6727.956999999999,91.534,350.5080000000001,349.135,0.0
53825.0,STARLINK-4751,PAYLOAD,2022-10-20 14:00:01,15.73250188,0.0001097,53.215,102.7162,66.1511,62.0571,-0.0005332,-0.00074946,0.0,0 STARLINK-4751,1 53825U 22114H   22293.58334491 -.00074946  00000-0 -53320-3 0  9996,2 53825  53.2150 102.7162 0001097  66.1511  62.0571 15.73250188  1302,6727.752,91.53,350.355,348.879,0.0
53825.0,STARLINK-4751,PAYLOAD,2022-10-20 22:00:00,15.73132149,0.0001246,53.215,101.0686,49.2331,167.8946,3.6381e-05,4.474e-05,0.0,0 STARLINK-4751,1 53825U 22114H   22293.91667824  .00004474  00000-0  36381-4 0  9998,2 53825  53.2150 101.0686 0001246  49.2331 167.8946 15.73132149  5594,6728.089,91.537,350.792,349.115,0.0
53825.0,STARLINK-4751,PAYLOAD,2022-10-21 06:00:00,15.73096456,0.0001115,53.2154,99.4169,55.7285,250.2963,0.0011949,0.00169752,0.0,0 STARLINK-4751,1 53825U 22114H   22294.25001157  .00169752  00000-0  11949-2 0  9999,2 53825  53.2154  99.4169 0001115  55.7285 250.2963 15.73096456  5641,6728.19,91.539,350.806,349.305,0.0
53825.0,STARLINK-4751,PAYLOAD,2022-10-21 14:00:01,15.73331893,0.0001338,53.215,97.7677,58.9665,336.0397,-0.00080453,-0.00112665,0.0,0 STARLINK-4751,1 53825U 22114H   22294.58334491 -.00112665  00000-0 -80453-3 0  9995,2 53825  53.2150  97.7677 0001338  58.9665 336.0397 15.73331893  5692,6727.519,91.526,350.284,348.4840000000001,0.0
53825.0,STARLINK-4751,PAYLOAD,2022-10-21 22:00:00,15.73242023,0.0001476,53.2137,96.1192,48.6487,75.3694,-0.00045719,-0.00064411,0.0,0 STARLINK-4751,1 53825U 22114H   22294.91667824 -.00064411  00000-0 -45719-3 0  9992,2 53825  53.2137  96.1192 0001476  48.6487  75.3694 15.73242023  1306,6727.775,91.531,350.6330000000001,348.647,0.0
53825.0,STARLINK-4751,PAYLOAD,2022-10-22 14:00:01,15.73242009,0.0001217,53.214,92.8184,47.4373,254.4212,-0.00057356,-0.00080492,0.0,0 STARLINK-4751,1 53825U 22114H   22295.58334491 -.00080492  00000-0 -57356-3 0  9994,2 53825  53.2140  92.8184 0001217  47.4373 254.4212 15.73242009  5852,6727.775,91.531,350.459,348.82199999999995,0.0
53825.0,STARLINK-4751,PAYLOAD,2022-10-22 22:00:00,15.73199713,0.0001422,53.2138,91.17,35.9906,354.834,0.00012765,0.00017331,0.0,0 STARLINK-4751,1 53825U 22114H   22295.91667824  .00017331  00000-0  12765-3 0  9995,2 53825  53.2138  91.1700 0001422  35.9906 354.8340 15.73199713  1303,6727.896,91.533,350.718,348.80400000000014,0.0
53825.0,STARLINK-4751,PAYLOAD,2022-10-23 00:00:02,15.73210315,0.0001392,53.2139,90.7571,35.3309,107.7891,9.0564e-06,6.52e-06,0.0,0 STARLINK-4751,1 53825U 22114H   22296.00002315  .00000652  00000-0  90564-5 0  9997,2 53825  53.2139  90.7571 0001392  35.3309 107.7891 15.73210315  5922,6727.866,91.533,350.667,348.7940000000001,0.0
53825.0,STARLINK-4751,PAYLOAD,2022-10-23 14:00:01,15.73282555,0.0001365999999999,53.214,87.8695,38.7114,169.9896,-0.00022934,-0.00032795,0.0,0 STARLINK-4751,1 53825U 22114H   22296.58334491 -.00032795  00000-0 -22934-3 0  9992,2 53825  53.2140  87.8695 0001366  38.7114 169.9896 15.73282555  1308,6727.66,91.528,350.444,348.606,0.0
53825.0,STARLINK-4751,PAYLOAD,2022-10-23 22:00:00,15.7325888,0.0001569,53.2135,86.2208,32.694,265.0227,-0.0005474,-0.00076941,0.0,0 STARLINK-4751,1 53825U 22114H   22296.91667824 -.00076941  00000-0 -54740-3 0  9999,2 53825  53.2135  86.2208 0001569  32.6940 265.0227 15.73258880  1300,6727.727,91.53,350.648,348.537,0.0
53825.0,STARLINK-4751,PAYLOAD,2022-10-24 06:00:00,15.73171724,0.0001351,53.2136,84.569,40.0706,346.6302,-0.00071299,-0.0009939,0.0,0 STARLINK-4751,1 53825U 22114H   22297.25001157 -.00099390  00000-0 -71299-3 0  9999,2 53825  53.2136  84.5690 0001351  40.0706 346.6302 15.73171724  6114,6727.976,91.535,350.75,348.932,0.0
53825.0,STARLINK-4751,PAYLOAD,2022-10-24 14:00:01,15.73083299,0.0001505,53.2139,82.9206,38.0125,77.5325,0.00013009,0.00017585,0.0,0 STARLINK-4751,1 53825U 22114H   22297.58334491  .00017585  00000-0  13009-3 0  9994,2 53825  53.2139  82.9206 0001505  38.0125  77.5325 15.73083299  1305,6728.228,91.54,351.106,349.08,0.0
53825.0,STARLINK-4751,PAYLOAD,2022-10-24 22:00:00,15.73090882,0.0001635,53.214,81.2722,29.1422,175.1926,0.00087681,0.00123683,0.0,0 STARLINK-4751,1 53825U 22114H   22297.91667824  .00123683  00000-0  87681-3 0  9994,2 53825  53.2140  81.2722 0001635  29.1422 175.1926 15.73090882  1305,6728.206,91.54,351.171,348.971,0.0
53825.0,STARLINK-4751,PAYLOAD,2022-10-25 00:00:00,15.73139696,0.0001617,53.2141,80.8593,28.7762,287.7537,0.00039016,0.00054351,0.0,0 STARLINK-4751,1 53825U 22114H   22298.00001157  .00054351  00000-0  39016-3 0  9990,2 53825  53.2141  80.8593 0001617  28.7762 287.7537 15.73139696  6231,6728.066999999999,91.537,351.02,348.844,0.0
53825.0,STARLINK-4751,PAYLOAD,2022-10-25 14:00:01,15.73233611,0.0001727,53.2144,77.9724,32.4474,349.639,-1.8151e-05,-3.171e-05,0.0,0 STARLINK-4751,1 53825U 22114H   22298.58334491 -.00003171  00000-0 -18151-4 0  9997,2 53825  53.2144  77.9724 0001727  32.4474 349.6390 15.73233611  1301,6727.799,91.531,350.826,348.50199999999984,0.0
53825.0,STARLINK-4751,PAYLOAD,2022-10-25 22:00:01,15.73227068,0.0001950999999999,53.2139,76.3234,32.3096,78.8154,4.8168e-05,6.152e-05,0.0,0 STARLINK-4751,1 53825U 22114H   22298.91668981  .00006152  00000-0  48168-4 0  9999,2 53825  53.2139  76.3234 0001951  32.3096  78.8154 15.73227068  1300,6727.818,91.532,350.996,348.37,0.0
53825.0,STARLINK-4751,PAYLOAD,2022-10-26 06:00:00,15.7324101,0.000181,53.214,74.6719,40.6405,159.3861,3.8577e-05,4.806e-05,0.0,0 STARLINK-4751,1 53825U 22114H   22299.25001157  .00004806  00000-0  38577-4 0  9990,2 53825  53.2140  74.6719 0001810  40.6405 159.3861 15.73241010  6433,6727.778,91.531,350.861,348.426,0.0
53825.0,STARLINK-4751,PAYLOAD,2022-10-26 14:00:01,15.73233897,0.0001659,53.2164,73.0234,40.7466,248.2382,-0.00035148,-0.00049731,0.0,0 STARLINK-4751,1 53825U 22114H   22299.58334491 -.00049731  00000-0 -35148-3 0  9994,2 53825  53.2164  73.0234 0001659  40.7466 248.2382 15.73233897  1304,6727.799,91.531,350.78,348.547,0.0
